OBJECT_NAME,OBJECT_ID,EPOCH,MEAN_MOTION,ECCENTRICITY,INCLINATION,RA_OF_ASC_NODE,ARG_OF_PERICENTER,MEAN_ANOMALY,EPHEMERIS_TYPE,CLASSIFICATION_TYPE,NORAD_CAT_ID,ELEMENT_SET_NO,REV_AT_EPOCH,BSTAR,MEAN_MOTION_DOT,MEAN_MOTION_DDOT
QIANFAN-147,2026-108C,2026-06-08T23:43:03.142848,14.11001569,.0021881,89.0113,23.1299,132.1322,228.1727,0,U,69106,999,318,-.11366E+1,-.1904458E-1,0
QIANFAN-148,2026-108D,2026-06-09T01:14:30.024096,14.12348657,.0019139,89.0112,23.1204,132.9176,227.3620,0,U,69107,999,319,-.1096E+1,-.1882782E-1,0
QIANFAN-149,2026-108E,2026-06-09T01:09:33.261696,14.12789051,.0019135,89.0115,23.1204,137.6686,222.5980,0,U,69108,999,319,-.10875E+1,-.1883434E-1,0
QIANFAN-150,2026-108F,2026-06-09T00:57:05.961312,14.14016203,.0016105,89.0117,23.1200,143.1246,217.1052,0,U,69109,999,319,-.1134E+1,-.1998996E-1,0
QIANFAN-151,2026-108G,2026-06-08T21:23:51.773280,14.14300885,.0017468,89.0115,23.1340,144.7220,215.5127,0,U,69110,999,317,-.10496E+1,-.1869518E-1,0
QIANFAN-152,2026-108H,2026-06-09T00:39:27.360000,14.15246250,.0014212,89.0108,23.1169,153.7104,206.4808,0,U,69111,999,319,-.10911E+1,-.1969302E-1,0
QIANFAN-153,2026-108J,2026-06-09T00:30:48.161664,14.13890541,.0018332,89.0111,23.1159,150.0804,210.1435,0,U,69112,999,319,-.93091E+0,-.1641978E-1,0
QIANFAN-154,2026-108K,2026-06-08T22:39:14.414112,14.15440524,.0014823,89.0116,23.1234,150.3978,209.8052,0,U,69113,999,318,-.10571E+1,-.191852E-1,0
QIANFAN-155,2026-108L,2026-06-09T00:25:44.208192,14.14761041,.0016666,89.0115,23.1163,145.3037,214.9241,0,U,69114,999,319,-.103E+1,-.1851283E-1,0
QIANFAN-156,2026-108M,2026-06-09T00:12:01.326816,14.15992405,.0013862,89.0118,23.1154,152.4194,207.7732,0,U,69115,999,319,-.10166E+1,-.18674E-1,0
QIANFAN-157,2026-108N,2026-06-08T23:32:16.666080,14.16574241,.0012674,89.0115,23.1106,148.5646,211.6302,0,U,69116,999,319,-.95411E+0,-.1757925E-1,0
QIANFAN-158,2026-108P,2026-06-09T00:02:33.408384,14.17928176,.0016552,89.0116,23.1138,164.5951,195.5745,0,U,69117,999,319,-.10993E+1,-.2077458E-1,0
QIANFAN-159,2026-108Q,2026-06-08T23:55:36.161184,14.18833185,.001606,89.0112,23.1124,159.1762,201.0085,0,U,69118,999,319,-.10741E+1,-.206519E-1,0
QIANFAN-160,2026-108R,2026-06-08T23:48:47.219616,14.18756166,.0012173,89.0126,23.1132,157.7843,202.3877,0,U,69119,999,319,-.1006E+1,-.1939842E-1,0
QIANFAN-161,2026-108S,2026-06-08T23:43:25.235328,14.18859156,.0013687,89.0123,23.1119,160.7448,199.4261,0,U,69120,999,319,-.10331E+1,-.1992239E-1,0
QIANFAN-162,2026-108T,2026-06-08T23:40:44.903712,14.19817573,.0017248,89.0114,23.1118,148.5171,211.7055,0,U,69121,999,319,-.10811E+1,-.2113788E-1,0
SMILE,2026-109A,2026-05-24T15:40:35.120928,14.57062785,.00091232,70.0007,229.2745,259.5159,100.4951,0,U,69123,999,80,-.42378883E-3,-.1976E-4,0
STARLINK-37726,2026-110A,2026-06-09T04:00:03.000096,15.49179285,.0001581,97.2861,356.3113,86.9159,315.2788,0,U,69124,999,436,-.27463E-3,-.14994E-3,0
STARLINK-37722,2026-110B,2026-06-09T04:00:03.000096,15.50952809,.0001509,97.2855,356.4726,95.1030,325.1481,0,U,69125,999,441,-.48312E-1,-.2484139E-1,0
STARLINK-37715,2026-110C,2026-06-09T04:00:03.000096,15.60313536,.0002205,97.2847,356.5498,95.9612,139.2303,0,U,69126,999,436,-.35994E-1,-.2551924E-1,0
STARLINK-37706,2026-110D,2026-06-09T04:00:03.000096,15.60665711,.0002256,97.2849,356.5538,97.1709,146.8235,0,U,69127,999,436,-.35197E-1,-.2532588E-1,0
STARLINK-37723,2026-110E,2026-06-09T04:00:03.000096,15.61038242,.0002257,97.2846,356.5582,99.8306,153.8676,0,U,69128,999,436,-.35261E-1,-.2568429E-1,0
STARLINK-37720,2026-110F,2026-06-09T04:00:03.000096,15.49193305,.0001699,97.2861,356.3324,91.5665,359.5289,0,U,69129,999,436,-.15464E-3,-.8493E-4,0
STARLINK-37533,2026-110G,2026-06-09T04:00:03.000096,15.62098815,.000208,97.2843,356.5690,104.0875,175.4925,0,U,69130,999,436,-.33684E-1,-.2558302E-1,0
STARLINK-37530,2026-110H,2026-06-09T04:00:03.000096,15.62461213,.0001992,97.2849,356.5733,107.5965,180.8908,0,U,69131,999,436,-.33403E-1,-.2571119E-1,0
STARLINK-37660,2026-110J,2026-06-09T04:00:03.000096,15.55548917,.0001703,97.2850,356.5042,83.5901,44.7389,0,U,69132,999,436,-.31319E-1,-.1891051E-1,0
STARLINK-37633,2026-110K,2026-06-09T04:00:03.000096,15.56970181,.0002224,97.2852,356.5132,83.0586,71.5974,0,U,69133,999,436,-.29641E-1,-.1887845E-1,0
STARLINK-37361,2026-110L,2026-06-09T04:00:03.000096,15.63556586,.0001554,97.2844,356.5799,98.7316,214.6139,0,U,69134,999,436,-.32814E-1,-.2627534E-1,0
STARLINK-37372,2026-110M,2026-06-09T04:00:03.000096,15.54376668,.000233,97.2847,356.5250,89.4243,98.0913,0,U,69135,999,436,-.49297E-1,-.2821771E-1,0
